ORBCOMM FM115           
1 41186U 15081H   24240.99604093  .00002511  00000+0  54057-3 0  9999
2 41186  46.9998 352.7059 0001128 228.5035 131.5755 14.61103449464874
ORBCOMM FM108           
1 41187U 15081J   24240.80567849  .00002324  00000+0  54929-3 0  9997
2 41187  47.0050  51.3885 0001505  35.1615 324.9369 14.56958036463995
ORBCOMM FM117           
1 41188U 15081K   24241.18323424  .00002538  00000+0  59669-3 0  9992
2 41188  47.0012  48.4678 0002113  56.7346 303.3742 14.56945892464147
ORBCOMM FM116           
1 41189U 15081L   24241.03530957  .00002979  00000+0  69533-3 0  9998
2 41189  47.0009 138.9939 0001923 153.7002 206.3981 14.56849084462954
